H-2A R/B                
1 28932U 06002B   26089.19388115  .00013779  00000+0  67864-3 0  9993
2 28932  98.2445 237.9929 0052453 170.8929 189.3266 15.16879240 97547
RESURS-DK 1             
1 29228U 06021A   26089.23132668  .00002911  00000+0  17119-3 0  9992
2 29228  69.9339 183.8864 0001346  49.3077 310.8206 15.12872134 90638
CZ-4B R/B               
1 29507U 06046C   26089.05723880  .00006922  00000+0  34785-3 0  9995
2 29507  97.5556 133.9100 0032825 194.2544 165.7767 15.17111209 63138
CZ-2C R/B               
1 31114U 07010B   26089.22691510  .00000163  00000+0  93855-4 0  9992
2 31114  98.4000 201.4786 0058128 233.7742 125.8054 14.20253691982639
COSMO-SKYMED 1          
1 31598U 07023A   26089.25700831  .00004607  00000+0  40881-3 0  9999
2 31598  97.8870 280.4571 0001075 102.8029 257.3312 14.96683541 17984
COSMOS 2428             
1 31792U 07029A   26089.20685441 -.00000016  00000+0  16956-4 0  9993
2 31792  70.9431 160.2824 0009702 255.8887 104.1157 14.12948547966995
SL-16 R/B               
1 31793U 07029B   26089.20932321 -.00000017  00000+0  16059-4 0  9991
2 31793  70.9747 129.2526 0002779 277.9697 148.7918 14.14843588968274
KORONAS-FOTON           
1 33504U 09003A   26088.21245498  .00019600  00000+0  43009-3 0  9990
2 33504  82.4275 255.5703 0011767  86.4859 273.7734 15.43844729948757
CZ-2C R/B               
1 37731U 11030B   26089.30185913  .00001839  00000+0  23747-3 0  9997
2 37731  97.8579  46.1581 0051039 283.8120 239.7712 14.81294624793141
H-2A R/B                
1 38341U 12025E   26089.13903881  .00004241  00000+0  38405-3 0  9990
2 38341  98.4764  57.8288 0042795 245.1796 114.4968 14.95313710751277
SHIJIAN-16 (SJ-16)      
1 39358U 13057A   26089.27642043  .00001573  00000+0  15599-3 0  9994
2 39358  74.9725 146.1172 0015280  59.0275 301.2412 14.92426134674578
SL-4 R/B                
1 39679U 14021B   26089.14114099  .00023819  00000+0  50981-3 0  9994
2 39679  51.6054 237.4532 0095266 177.5547 182.5922 15.39903339659427
