CCSDS_OMM_VERS = 2.0
CREATION_DATE  = 
ORIGINATOR     = 

OBJECT_NAME    = H-2A R/B
OBJECT_ID      = 2006-002B
CENTER_NAME    = EARTH
REF_FRAME      = TEME
TIME_SYSTEM    = UTC
MEAN_ELEMENT_THEORY = SGP/SGP4

EPOCH          = 2026-03-30T04:39:11.331360
MEAN_MOTION    = 15.16879240
ECCENTRICITY   = .00524535
INCLINATION    = 98.2445
RA_OF_ASC_NODE = 237.9929
ARG_OF_PERICENTER = 170.8929
MEAN_ANOMALY   = 189.3266

EPHEMERIS_TYPE = 0
CLASSIFICATION_TYPE = U
NORAD_CAT_ID   = 28932
ELEMENT_SET_NO = 999
REV_AT_EPOCH   = 9754
BSTAR          = .6786387E-3
MEAN_MOTION_DOT = .13779E-3
MEAN_MOTION_DDOT = 0

CCSDS_OMM_VERS = 2.0
CREATION_DATE  = 
ORIGINATOR     = 

OBJECT_NAME    = RESURS-DK 1
OBJECT_ID      = 2006-021A
CENTER_NAME    = EARTH
REF_FRAME      = TEME
TIME_SYSTEM    = UTC
MEAN_ELEMENT_THEORY = SGP/SGP4

EPOCH          = 2026-03-30T05:33:06.625152
MEAN_MOTION    = 15.12872134
ECCENTRICITY   = .00013468
INCLINATION    = 69.9339
RA_OF_ASC_NODE = 183.8864
ARG_OF_PERICENTER = 49.3077
MEAN_ANOMALY   = 310.8206

EPHEMERIS_TYPE = 0
CLASSIFICATION_TYPE = U
NORAD_CAT_ID   = 29228
ELEMENT_SET_NO = 999
REV_AT_EPOCH   = 9063
BSTAR          = .17119199E-3
MEAN_MOTION_DOT = .2911E-4
MEAN_MOTION_DDOT = 0

CCSDS_OMM_VERS = 2.0
CREATION_DATE  = 
ORIGINATOR     = 

OBJECT_NAME    = CZ-4B R/B
OBJECT_ID      = 2006-046C
CENTER_NAME    = EARTH
REF_FRAME      = TEME
TIME_SYSTEM    = UTC
MEAN_ELEMENT_THEORY = SGP/SGP4

EPOCH          = 2026-03-30T01:22:25.432320
MEAN_MOTION    = 15.17111209
ECCENTRICITY   = .00328256
INCLINATION    = 97.5556
RA_OF_ASC_NODE = 133.9100
ARG_OF_PERICENTER = 194.2544
MEAN_ANOMALY   = 165.7767

EPHEMERIS_TYPE = 0
CLASSIFICATION_TYPE = U
NORAD_CAT_ID   = 29507
ELEMENT_SET_NO = 999
REV_AT_EPOCH   = 6313
BSTAR          = .34785233E-3
MEAN_MOTION_DOT = .6922E-4
MEAN_MOTION_DDOT = 0

CCSDS_OMM_VERS = 2.0
CREATION_DATE  = 
ORIGINATOR     = 

OBJECT_NAME    = CZ-2C R/B
OBJECT_ID      = 2007-010B
CENTER_NAME    = EARTH
REF_FRAME      = TEME
TIME_SYSTEM    = UTC
MEAN_ELEMENT_THEORY = SGP/SGP4

EPOCH          = 2026-03-30T05:26:45.464640
MEAN_MOTION    = 14.20253691
ECCENTRICITY   = .00581289
INCLINATION    = 98.4000
RA_OF_ASC_NODE = 201.4786
ARG_OF_PERICENTER = 233.7742
MEAN_ANOMALY   = 125.8054

EPHEMERIS_TYPE = 0
CLASSIFICATION_TYPE = U
NORAD_CAT_ID   = 31114
ELEMENT_SET_NO = 999
REV_AT_EPOCH   = 98263
BSTAR          = .938546E-4
MEAN_MOTION_DOT = .163E-5
MEAN_MOTION_DDOT = 0

CCSDS_OMM_VERS = 2.0
CREATION_DATE  = 
ORIGINATOR     = 

OBJECT_NAME    = COSMO-SKYMED 1
OBJECT_ID      = 2007-023A
CENTER_NAME    = EARTH
REF_FRAME      = TEME
TIME_SYSTEM    = UTC
MEAN_ELEMENT_THEORY = SGP/SGP4

EPOCH          = 2026-03-30T06:10:05.517984
MEAN_MOTION    = 14.96683541
ECCENTRICITY   = .00010758
INCLINATION    = 97.8870
RA_OF_ASC_NODE = 280.4571
ARG_OF_PERICENTER = 102.8029
MEAN_ANOMALY   = 257.3312

EPHEMERIS_TYPE = 0
CLASSIFICATION_TYPE = U
NORAD_CAT_ID   = 31598
ELEMENT_SET_NO = 999
REV_AT_EPOCH   = 1798
BSTAR          = .40881455E-3
MEAN_MOTION_DOT = .4607E-4
MEAN_MOTION_DDOT = 0

CCSDS_OMM_VERS = 2.0
CREATION_DATE  = 
ORIGINATOR     = 

OBJECT_NAME    = COSMOS 2428
OBJECT_ID      = 2007-029A
CENTER_NAME    = EARTH
REF_FRAME      = TEME
TIME_SYSTEM    = UTC
MEAN_ELEMENT_THEORY = SGP/SGP4

EPOCH          = 2026-03-30T04:57:52.221024
MEAN_MOTION    = 14.12948547
ECCENTRICITY   = .0009702
INCLINATION    = 70.9431
RA_OF_ASC_NODE = 160.2824
ARG_OF_PERICENTER = 255.8887
MEAN_ANOMALY   = 104.1157

EPHEMERIS_TYPE = 0
CLASSIFICATION_TYPE = U
NORAD_CAT_ID   = 31792
ELEMENT_SET_NO = 999
REV_AT_EPOCH   = 96699
BSTAR          = .16955983E-4
MEAN_MOTION_DOT = -.16E-6
MEAN_MOTION_DDOT = 0

CCSDS_OMM_VERS = 2.0
CREATION_DATE  = 
ORIGINATOR     = 

OBJECT_NAME    = SL-16 R/B
OBJECT_ID      = 2007-029B
CENTER_NAME    = EARTH
REF_FRAME      = TEME
TIME_SYSTEM    = UTC
MEAN_ELEMENT_THEORY = SGP/SGP4

EPOCH          = 2026-03-30T05:01:25.525344
MEAN_MOTION    = 14.14843588
ECCENTRICITY   = .00027797
INCLINATION    = 70.9747
RA_OF_ASC_NODE = 129.2526
ARG_OF_PERICENTER = 277.9697
MEAN_ANOMALY   = 148.7918

EPHEMERIS_TYPE = 0
CLASSIFICATION_TYPE = U
NORAD_CAT_ID   = 31793
ELEMENT_SET_NO = 999
REV_AT_EPOCH   = 96827
BSTAR          = .16059345E-4
MEAN_MOTION_DOT = -.17E-6
MEAN_MOTION_DDOT = 0

CCSDS_OMM_VERS = 2.0
CREATION_DATE  = 
ORIGINATOR     = 

OBJECT_NAME    = KORONAS-FOTON
OBJECT_ID      = 2009-003A
CENTER_NAME    = EARTH
REF_FRAME      = TEME
TIME_SYSTEM    = UTC
MEAN_ELEMENT_THEORY = SGP/SGP4

EPOCH          = 2026-03-29T05:05:56.110272
MEAN_MOTION    = 15.43844729
ECCENTRICITY   = .00117673
INCLINATION    = 82.4275
RA_OF_ASC_NODE = 255.5703
ARG_OF_PERICENTER = 86.4859
MEAN_ANOMALY   = 273.7734

EPHEMERIS_TYPE = 0
CLASSIFICATION_TYPE = U
NORAD_CAT_ID   = 33504
ELEMENT_SET_NO = 999
REV_AT_EPOCH   = 94875
BSTAR          = .43008834E-3
MEAN_MOTION_DOT = .196E-3
MEAN_MOTION_DDOT = 0

CCSDS_OMM_VERS = 2.0
CREATION_DATE  = 
ORIGINATOR     = 

OBJECT_NAME    = CZ-2C R/B
OBJECT_ID      = 2011-030B
CENTER_NAME    = EARTH
REF_FRAME      = TEME
TIME_SYSTEM    = UTC
MEAN_ELEMENT_THEORY = SGP/SGP4

EPOCH          = 2026-03-30T07:14:40.628832
MEAN_MOTION    = 14.81294624
ECCENTRICITY   = .00510399
INCLINATION    = 97.8579
RA_OF_ASC_NODE = 46.1581
ARG_OF_PERICENTER = 283.8120
MEAN_ANOMALY   = 239.7712

EPHEMERIS_TYPE = 0
CLASSIFICATION_TYPE = U
NORAD_CAT_ID   = 37731
ELEMENT_SET_NO = 999
REV_AT_EPOCH   = 79314
BSTAR          = .23746954E-3
MEAN_MOTION_DOT = .1839E-4
MEAN_MOTION_DDOT = 0

CCSDS_OMM_VERS = 2.0
CREATION_DATE  = 
ORIGINATOR     = 

OBJECT_NAME    = H-2A R/B
OBJECT_ID      = 2012-025E
CENTER_NAME    = EARTH
REF_FRAME      = TEME
TIME_SYSTEM    = UTC
MEAN_ELEMENT_THEORY = SGP/SGP4

EPOCH          = 2026-03-30T03:20:12.953184
MEAN_MOTION    = 14.95313710
ECCENTRICITY   = .00427957
INCLINATION    = 98.4764
RA_OF_ASC_NODE = 57.8288
ARG_OF_PERICENTER = 245.1796
MEAN_ANOMALY   = 114.4968

EPHEMERIS_TYPE = 0
CLASSIFICATION_TYPE = U
NORAD_CAT_ID   = 38341
ELEMENT_SET_NO = 999
REV_AT_EPOCH   = 75127
BSTAR          = .38405201E-3
MEAN_MOTION_DOT = .4241E-4
MEAN_MOTION_DDOT = 0

CCSDS_OMM_VERS = 2.0
CREATION_DATE  = 
ORIGINATOR     = 

OBJECT_NAME    = SHIJIAN-16 (SJ-16)
OBJECT_ID      = 2013-057A
CENTER_NAME    = EARTH
REF_FRAME      = TEME
TIME_SYSTEM    = UTC
MEAN_ELEMENT_THEORY = SGP/SGP4

EPOCH          = 2026-03-30T06:38:02.725152
MEAN_MOTION    = 14.92426134
ECCENTRICITY   = .00152802
INCLINATION    = 74.9725
RA_OF_ASC_NODE = 146.1172
ARG_OF_PERICENTER = 59.0275
MEAN_ANOMALY   = 301.2412

EPHEMERIS_TYPE = 0
CLASSIFICATION_TYPE = U
NORAD_CAT_ID   = 39358
ELEMENT_SET_NO = 999
REV_AT_EPOCH   = 67457
BSTAR          = .15599258E-3
MEAN_MOTION_DOT = .1573E-4
MEAN_MOTION_DDOT = 0

CCSDS_OMM_VERS = 2.0
CREATION_DATE  = 
ORIGINATOR     = 

OBJECT_NAME    = SL-4 R/B
OBJECT_ID      = 2014-021B
CENTER_NAME    = EARTH
REF_FRAME      = TEME
TIME_SYSTEM    = UTC
MEAN_ELEMENT_THEORY = SGP/SGP4

EPOCH          = 2026-03-30T03:23:14.581536
MEAN_MOTION    = 15.39903339
ECCENTRICITY   = .0095266
INCLINATION    = 51.6054
RA_OF_ASC_NODE = 237.4532
ARG_OF_PERICENTER = 177.5547
MEAN_ANOMALY   = 182.5922

EPHEMERIS_TYPE = 0
CLASSIFICATION_TYPE = U
NORAD_CAT_ID   = 39679
ELEMENT_SET_NO = 999
REV_AT_EPOCH   = 65942
BSTAR          = .50981E-3
MEAN_MOTION_DOT = .23819E-3
MEAN_MOTION_DDOT = 0

